{
  "type": "FeatureCollection",
  "properties": {
    "gardenId": "ashintully-terrace-garden",
    "layer": "parcels",
    "status": "Reviewed site interpretation; planting design deferred"
  },
  "features": [
    {
      "type": "Feature",
      "id": "ashintully-terrace-garden-parcel-409_7_0",
      "geometry": {
        "type": "Polygon",
        "coordinates": [
          [
            [
              -73.17537302032227,
              42.21373413048177
            ],
            [
              -73.17534325428188,
              42.21369777610673
            ],
            [
              -73.17417982567291,
              42.2122841390268
            ],
            [
              -73.17177996649444,
              42.2133026314246
            ],
            [
              -73.17336581487935,
              42.215139673131254
            ],
            [
              -73.17379843303112,
              42.2147744110927
            ],
            [
              -73.1739724640104,
              42.2145554546411
            ],
            [
              -73.17461618902718,
              42.21419584265907
            ],
            [
              -73.17528676046132,
              42.2137867552285
            ],
            [
              -73.17537302032227,
              42.21373413048177
            ]
          ]
        ]
      },
      "properties": {
        "gardenId": "ashintully-terrace-garden",
        "layer": "parcels",
        "name": "Ashintully · Terrace Garden · 409_7_0",
        "source": "MassGIS Level 3 parcels",
        "sourceReferences": [
          {
            "id": "source:massgis-parcels",
            "role": "parcel context"
          }
        ],
        "provenance": {
          "sourceId": "source:massgis-parcels",
          "sourceFeatureId": "409_7_0"
        },
        "MAP_PAR_ID": "409_7_0",
        "LOT_SIZE": 499938,
        "LOT_UNITS": "Sq. Ft.",
        "FY": 2025
      }
    },
    {
      "type": "Feature",
      "id": "ashintully-terrace-garden-parcel-409_6_1",
      "geometry": {
        "type": "Polygon",
        "coordinates": [
          [
            [
              -73.17338882254563,
              42.21601721346359
            ],
            [
              -73.17364496691073,
              42.216017179349265
            ],
            [
              -73.17390109661076,
              42.21601992046124
            ],
            [
              -73.17421470772948,
              42.216022876564125
            ],
            [
              -73.17452832461672,
              42.21602061374462
            ],
            [
              -73.17484186042844,
              42.21601313262933
            ],
            [
              -73.17515522834303,
              42.21600043528985
            ],
            [
              -73.17546834158534,
              42.21598252524223
            ],
            [
              -73.1757811134508,
              42.21595940744596
            ],
            [
              -73.17613470773064,
              42.21594644853953
            ],
            [
              -73.17619202098905,
              42.2159444047117
            ],
            [
              -73.1762487627841,
              42.215936076715664
            ],
            [
              -73.17630424618466,
              42.21592156537234
            ],
            [
              -73.17635779949407,
              42.21590104635987
            ],
            [
              -73.17640877438188,
              42.21587476808681
            ],
            [
              -73.17645655373269,
              42.215843048684874
            ],
            [
              -73.17650055911707,
              42.21580627215748
            ],
            [
              -73.17654025779429,
              42.215764883730955
            ],
            [
              -73.17664116611054,
              42.215619419888505
            ],
            [
              -73.17668888000952,
              42.21556545879021
            ],
            [
              -73.17674004620667,
              42.21551475931729
            ],
            [
              -73.17679444225772,
              42.21546754188495
            ],
            [
              -73.17644155155068,
              42.2152819406624
            ],
            [
              -73.17649442336302,
              42.21481276159809
            ],
            [
              -73.17594927905476,
              42.2144379266517
            ],
            [
              -73.17537302032227,
              42.21373413048177
            ],
            [
              -73.17528676046132,
              42.2137867552285
            ],
            [
              -73.17461618902718,
              42.21419584265907
            ],
            [
              -73.1739724640104,
              42.2145554546411
            ],
            [
              -73.17379843303112,
              42.2147744110927
            ],
            [
              -73.17336581487935,
              42.215139673131254
            ],
            [
              -73.17349106225886,
              42.215716632976786
            ],
            [
              -73.17338882254563,
              42.21601721346359
            ]
          ]
        ]
      },
      "properties": {
        "gardenId": "ashintully-terrace-garden",
        "layer": "parcels",
        "name": "Ashintully · Terrace Garden · 409_6_1",
        "source": "MassGIS Level 3 parcels",
        "sourceReferences": [
          {
            "id": "source:massgis-parcels",
            "role": "parcel context"
          }
        ],
        "provenance": {
          "sourceId": "source:massgis-parcels",
          "sourceFeatureId": "409_6_1"
        },
        "MAP_PAR_ID": "409_6_1",
        "LOT_SIZE": 515750,
        "LOT_UNITS": "Sq. Ft.",
        "FY": 2025
      }
    },
    {
      "type": "Feature",
      "id": "ashintully-terrace-garden-parcel-409_8_0",
      "geometry": {
        "type": "Polygon",
        "coordinates": [
          [
            [
              -73.1680821925531,
              42.21478167440389
            ],
            [
              -73.16821882799987,
              42.21490120257481
            ],
            [
              -73.16836264495878,
              42.21493299894095
            ],
            [
              -73.1685769820308,
              42.21497835035111
            ],
            [
              -73.1687926129359,
              42.21501708591124
            ],
            [
              -73.16900933351565,
              42.21504916894669
            ],
            [
              -73.16922693857994,
              42.21507456908139
            ],
            [
              -73.16940325605553,
              42.21508622964813
            ],
            [
              -73.16957907398987,
              42.2151038896306
            ],
            [
              -73.16975418830522,
              42.215127528530246
            ],
            [
              -73.16986712071682,
              42.215148317788376
            ],
            [
              -73.1699789770911,
              42.215174280730714
            ],
            [
              -73.17008952054104,
              42.2152053623735
            ],
            [
              -73.17019851696008,
              42.215241496892695
            ],
            [
              -73.17030573551797,
              42.215282607763385
            ],
            [
              -73.17041094914951,
              42.215328607921855
            ],
            [
              -73.17051393503556,
              42.215379399949946
            ],
            [
              -73.17067340688278,
              42.215461850577746
            ],
            [
              -73.1708349191017,
              42.21554022901373
            ],
            [
              -73.17099836772779,
              42.215614484806146
            ],
            [
              -73.17116364755016,
              42.21568457015698
            ],
            [
              -73.17133441319177,
              42.215750063175605
            ],
            [
              -73.1715073643524,
              42.21580954540725
            ],
            [
              -73.17168228953133,
              42.215862944111535
            ],
            [
              -73.17185897481384,
              42.21591019398757
            ],
            [
              -73.1720372041328,
              42.21595123725384
            ],
            [
              -73.1721627073168,
              42.21598113970813
            ],
            [
              -73.17228965499531,
              42.216004150420616
            ],
            [
              -73.1724176690171,
              42.21602020084709
            ],
            [
              -73.17254636805455,
              42.21602924317661
            ],
            [
              -73.17267536873953,
              42.21603125047392
            ],
            [
              -73.17280428680532,
              42.216026216759694
            ],
            [
              -73.17309652721237,
              42.216019932079305
            ],
            [
              -73.17338882254563,
              42.21601721346359
            ],
            [
              -73.17349106225886,
              42.215716632976786
            ],
            [
              -73.17336581487935,
              42.215139673131254
            ],
            [
              -73.17177996649444,
              42.2133026314246
            ],
            [
              -73.17417982567291,
              42.2122841390268
            ],
            [
              -73.17534325428188,
              42.21369777610673
            ],
            [
              -73.17537302032227,
              42.21373413048177
            ],
            [
              -73.17699997394487,
              42.212741677816474
            ],
            [
              -73.17692120834398,
              42.21269501385106
            ],
            [
              -73.17683989185953,
              42.212652952290135
            ],
            [
              -73.17680235585802,
              42.21263195861455
            ],
            [
              -73.17676297102366,
              42.212614680864455
            ],
            [
              -73.17672210415088,
              42.21260127994904
            ],
            [
              -73.17654273457204,
              42.212544404108414
            ],
            [
              -73.17636526140572,
              42.21248186146459
            ],
            [
              -73.17618986363242,
              42.21241371509141
            ],
            [
              -73.17601671813958,
              42.21234003371402
            ],
            [
              -73.1758459995433,
              42.21226089163961
            ],
            [
              -73.17567788001212,
              42.21217636868241
            ],
            [
              -73.17551252909344,
              42.21208655008326
            ],
            [
              -73.1744450557415,
              42.21141919617614
            ],
            [
              -73.1742841284666,
              42.21131273516059
            ],
            [
              -73.17411954498894,
              42.21121201865486
            ],
            [
              -73.17395151027665,
              42.211117172088755
            ],
            [
              -73.17378023359588,
              42.21102831358177
            ],
            [
              -73.17360592825027,
              42.210945553796044
            ],
            [
              -73.17342881131529,
              42.21086899579852
            ],
            [
              -73.17331588143682,
              42.210835531206996
            ],
            [
              -73.17320503452964,
              42.21079570659773
            ],
            [
              -73.17309662845895,
              42.21074965054303
            ],
            [
              -73.17299101320984,
              42.210697511733194
            ],
            [
              -73.1728885297573,
              42.21063945849648
            ],
            [
              -73.17278950896545,
              42.21057567825567
            ],
            [
              -73.17269427051933,
              42.21050637692295
            ],
            [
              -73.1726031218928,
              42.21043177823517
            ],
            [
              -73.17251635735592,
              42.21035212303148
            ],
            [
              -73.17243425702483,
              42.21026766847582
            ],
            [
              -73.17235708595749,
              42.210178687226666
            ],
            [
              -73.17228509329787,
              42.210085466556755
            ],
            [
              -73.1722185114717,
              42.20998830742565
            ],
            [
              -73.17215755543596,
              42.209887523508065
            ],
            [
              -73.17210242198502,
              42.20978344018124
            ],
            [
              -73.17205328911521,
              42.20967639347442
            ],
            [
              -73.17201031545024,
              42.209566728984015
            ],
            [
              -73.17194641797755,
              42.209400640564745
            ],
            [
              -73.17187596559064,
              42.20923722480293
            ],
            [
              -73.17179906976926,
              42.20907674027818
            ],
            [
              -73.1717158521889,
              42.208919440931865
            ],
            [
              -73.1716264445282,
              42.208765575665346
            ],
            [
              -73.17153098826067,
              42.208615387946075
            ],
            [
              -73.17119281664546,
              42.20904123013085
            ],
            [
              -73.16960891017789,
              42.21103256461096
            ],
            [
              -73.16790689116104,
              42.21025267567148
            ],
            [
              -73.16965159629004,
              42.20833263154133
            ],
            [
              -73.17046680675115,
              42.20743520590737
            ],
            [
              -73.170404720369,
              42.207383162750794
            ],
            [
              -73.16987167465462,
              42.20692392986848
            ],
            [
              -73.16948355316745,
              42.207359330607105
            ],
            [
              -73.1682756789881,
              42.20885290265003
            ],
            [
              -73.16809534157461,
              42.208764711879425
            ],
            [
              -73.16492142053633,
              42.21261718461036
            ],
            [
              -73.1663252610379,
              42.213684226800325
            ],
            [
              -73.1667278908921,
              42.213876930560346
            ],
            [
              -73.16755703799528,
              42.21429677395094
            ],
            [
              -73.1680821925531,
              42.21478167440389
            ]
          ]
        ]
      },
      "properties": {
        "gardenId": "ashintully-terrace-garden",
        "layer": "parcels",
        "name": "Ashintully · Terrace Garden · 409_8_0",
        "source": "MassGIS Level 3 parcels",
        "sourceReferences": [
          {
            "id": "source:massgis-parcels",
            "role": "parcel context"
          }
        ],
        "provenance": {
          "sourceId": "source:massgis-parcels",
          "sourceFeatureId": "409_8_0"
        },
        "MAP_PAR_ID": "409_8_0",
        "LOT_SIZE": 4000550,
        "LOT_UNITS": "Sq. Ft.",
        "FY": 2025
      }
    },
    {
      "type": "Feature",
      "id": "ashintully-terrace-garden-parcel-409_6_0",
      "geometry": {
        "type": "Polygon",
        "coordinates": [
          [
            [
              -73.17537302032227,
              42.21373413048177
            ],
            [
              -73.17594927905476,
              42.2144379266517
            ],
            [
              -73.17649442336302,
              42.21481276159809
            ],
            [
              -73.17644155155068,
              42.2152819406624
            ],
            [
              -73.17679444225772,
              42.21546754188495
            ],
            [
              -73.1768447408857,
              42.215428214050306
            ],
            [
              -73.17689696562562,
              42.21539148249583
            ],
            [
              -73.17695098259765,
              42.2153574413841
            ],
            [
              -73.17700162903142,
              42.21533252186501
            ],
            [
              -73.1770546188216,
              42.215313076407384
            ],
            [
              -73.1771093622583,
              42.215299321414754
            ],
            [
              -73.1771652501158,
              42.21529140996294
            ],
            [
              -73.17715971617106,
              42.2152811812801
            ],
            [
              -73.17714654770336,
              42.21521370831377
            ],
            [
              -73.17714042771581,
              42.21514523528638
            ],
            [
              -73.17714142183844,
              42.21507649649495
            ],
            [
              -73.17714951941042,
              42.215008229086514
            ],
            [
              -73.17716463359427,
              42.214941165153036
            ],
            [
              -73.17749665859407,
              42.213906599733654
            ],
            [
              -73.17752021649447,
              42.21382947885372
            ],
            [
              -73.17753685855462,
              42.213750576086795
            ],
            [
              -73.1775464542405,
              42.21367051031629
            ],
            [
              -73.17754892828717,
              42.213589909547764
            ],
            [
              -73.17754426128916,
              42.2135094059831
            ],
            [
              -73.17753248985264,
              42.21342963106176
            ],
            [
              -73.17751370630828,
              42.21335121050798
            ],
            [
              -73.17748805798709,
              42.21327475942287
            ],
            [
              -73.17745574606478,
              42.21320087745978
            ],
            [
              -73.17740556345099,
              42.213122131632616
            ],
            [
              -73.17734988912926,
              42.21304716784187
            ],
            [
              -73.17728900700502,
              42.21297636835761
            ],
            [
              -73.17722322754035,
              42.212910094214465
            ],
            [
              -73.17715288617079,
              42.212848683370545
            ],
            [
              -73.17707834159485,
              42.212792448984075
            ],
            [
              -73.17699997394487,
              42.212741677816474
            ],
            [
              -73.17537302032227,
              42.21373413048177
            ]
          ]
        ]
      },
      "properties": {
        "gardenId": "ashintully-terrace-garden",
        "layer": "parcels",
        "name": "Ashintully · Terrace Garden · 409_6_0",
        "source": "MassGIS Level 3 parcels",
        "sourceReferences": [
          {
            "id": "source:massgis-parcels",
            "role": "parcel context"
          }
        ],
        "provenance": {
          "sourceId": "source:massgis-parcels",
          "sourceFeatureId": "409_6_0"
        },
        "MAP_PAR_ID": "409_6_0",
        "LOT_SIZE": 290545,
        "LOT_UNITS": "Sq. Ft.",
        "FY": 2025
      }
    }
  ]
}
