{
  "type": "FeatureCollection",
  "properties": {
    "gardenId": "naumkeag-garden-rooms",
    "layer": "parcels",
    "status": "Reviewed site interpretation; planting design deferred"
  },
  "features": [
    {
      "type": "Feature",
      "id": "naumkeag-garden-rooms-parcel-219_55",
      "geometry": {
        "type": "Polygon",
        "coordinates": [
          [
            [
              -73.31452996460708,
              42.28793601400671
            ],
            [
              -73.31459220245176,
              42.28797689424241
            ],
            [
              -73.31465310068545,
              42.2880197445413
            ],
            [
              -73.31475674230988,
              42.28809665615921
            ],
            [
              -73.31485626750073,
              42.28817882500774
            ],
            [
              -73.31495140987238,
              42.28826603115662
            ],
            [
              -73.31504191477006,
              42.28835804119292
            ],
            [
              -73.31512753995153,
              42.2884546088458
            ],
            [
              -73.31520805623543,
              42.28855547564564
            ],
            [
              -73.3152832481147,
              42.2886603716159
            ],
            [
              -73.31535291433335,
              42.28876901599571
            ],
            [
              -73.31541686842525,
              42.2888811179913
            ],
            [
              -73.31547493921309,
              42.28899637755438
            ],
            [
              -73.31552697126665,
              42.28911448618526
            ],
            [
              -73.31591556042517,
              42.29014858642192
            ],
            [
              -73.31597308091068,
              42.29029864905549
            ],
            [
              -73.31603574946234,
              42.29044663572003
            ],
            [
              -73.31610349131623,
              42.29059236986662
            ],
            [
              -73.31617622565592,
              42.2907356776336
            ],
            [
              -73.31635236975629,
              42.29068881402225
            ],
            [
              -73.31652342095067,
              42.29066917882932
            ],
            [
              -73.31705300387942,
              42.29065700420034
            ],
            [
              -73.31718276128393,
              42.29065402126093
            ],
            [
              -73.31717393406937,
              42.29056961873644
            ],
            [
              -73.31962410117053,
              42.29026612575954
            ],
            [
              -73.31962901850594,
              42.2902049887819
            ],
            [
              -73.32001417131434,
              42.29018097127235
            ],
            [
              -73.32084181413572,
              42.29012935708192
            ],
            [
              -73.32083345383165,
              42.29005903922953
            ],
            [
              -73.31963486340659,
              42.29013232155689
            ],
            [
              -73.3196504506176,
              42.28993851645546
            ],
            [
              -73.31966630602072,
              42.28974138606193
            ],
            [
              -73.3196832272243,
              42.28953099786657
            ],
            [
              -73.31969933864697,
              42.28933067113164
            ],
            [
              -73.31971804419749,
              42.2890981024173
            ],
            [
              -73.3197428386556,
              42.28878980718073
            ],
            [
              -73.31977958553178,
              42.28833289722036
            ],
            [
              -73.31979993001728,
              42.28807993952853
            ],
            [
              -73.31981172076861,
              42.28793333458489
            ],
            [
              -73.31981441394262,
              42.28789985465413
            ],
            [
              -73.31981458113401,
              42.28788786368643
            ],
            [
              -73.31982994133057,
              42.28770333086989
            ],
            [
              -73.31985280883909,
              42.28744213142608
            ],
            [
              -73.31988729501485,
              42.28704823338304
            ],
            [
              -73.32049029004234,
              42.28715437159953
            ],
            [
              -73.32044756733784,
              42.28678536121549
            ],
            [
              -73.31990860021132,
              42.28666107905527
            ],
            [
              -73.31848949593565,
              42.2863733402003
            ],
            [
              -73.3183852995193,
              42.28632101767429
            ],
            [
              -73.31832928578432,
              42.28637473662768
            ],
            [
              -73.3162061796784,
              42.28532994151136
            ],
            [
              -73.31600817594109,
              42.28578471473325
            ],
            [
              -73.31570602429044,
              42.28647868048008
            ],
            [
              -73.31537197442303,
              42.28707334019027
            ],
            [
              -73.31452996460708,
              42.28793601400671
            ]
          ]
        ]
      },
      "properties": {
        "gardenId": "naumkeag-garden-rooms",
        "layer": "parcels",
        "name": "Naumkeag · Garden Rooms · 219_55",
        "source": "MassGIS Level 3 parcels",
        "sourceReferences": [
          {
            "id": "source:massgis-parcels",
            "role": "parcel context"
          }
        ],
        "provenance": {
          "sourceId": "source:massgis-parcels",
          "sourceFeatureId": "219_55"
        },
        "MAP_PAR_ID": "219_55"
      }
    }
  ]
}
